[{"OBJECT_NAME":"ONEWEB-0576","OBJECT_ID":"2023-043V","EPOCH":"2026-03-09T23:04:39.403488","MEAN_MOTION":13.1659366,"ECCENTRICITY":0.00013945,"INCLINATION":87.9009,"RA_OF_ASC_NODE":248.5084,"ARG_OF_PERICENTER":91.8866,"MEAN_ANOMALY":268.2424,"EPHEMERIS_TYPE":0,"CLASSIFICATION_TYPE":"U","NORAD_CAT_ID":56065,"ELEMENT_SET_NO":999,"REV_AT_EPOCH":14590,"BSTAR":1.8192297e-5,"MEAN_MOTION_DOT":2.0e-7,"MEAN_MOTION_DDOT":0},{"OBJECT_NAME":"DELTA 1 DEB","OBJECT_ID":"1975-052AF","EPOCH":"2026-03-09T22:50:55.690080","MEAN_MOTION":12.94612775,"ECCENTRICITY":0.02504162,"INCLINATION":99.8451,"RA_OF_ASC_NODE":218.2651,"ARG_OF_PERICENTER":51.4208,"MEAN_ANOMALY":57.0896,"EPHEMERIS_TYPE":0,"CLASSIFICATION_TYPE":"U","NORAD_CAT_ID":21294,"ELEMENT_SET_NO":999,"REV_AT_EPOCH":64376,"BSTAR":0.0014290951,"MEAN_MOTION_DOT":4.22e-6,"MEAN_MOTION_DDOT":0}]
